NORAD_CAT_ID,OBJECT_NAME,OBJECT_TYPE,EPOCH,MEAN_MOTION,ECCENTRICITY,INCLINATION,RA_OF_ASC_NODE,ARG_OF_PERICENTER,MEAN_ANOMALY,BSTAR,MEAN_MOTION_DOT,MEAN_MOTION_DDOT,TLE_LINE0,TLE_LINE1,TLE_LINE2,SEMIMAJOR_AXIS,PERIOD,APOGEE,PERIGEE,DECAYED
51957.0,STARLINK-3694,PAYLOAD,2022-12-15 20:41:31,15.088285,0.0002487,53.2172,285.5777,30.8781,329.2357,7.321e-05,8.77e-06,0.0,0 STARLINK-3694,1 51957U 22025B   22349.86217099  .00000877  00000-0  73210-4 0  9999,2 51957  53.2172 285.5777 0002487  30.8781 329.2357 15.08828500 43081,6917.916,95.438,541.501,538.06,0.0
51957.0,STARLINK-3694,PAYLOAD,2022-12-16 12:35:23,15.08825478,0.0002381,53.218,282.6046,45.2071,314.9115,6.0224e-05,6.7e-06,0.0,0 STARLINK-3694,1 51957U 22025B   22350.52457710  .00000670  00000-0  60224-4 0  9992,2 51957  53.2180 282.6046 0002381  45.2071 314.9115 15.08825478 44290,6917.925,95.438,541.437,538.143,0.0
51957.0,STARLINK-3694,PAYLOAD,2022-12-16 20:32:19,15.08819341,0.0002194,53.2179,281.119,48.4268,311.6912,-1.55e-09,-2.88e-06,0.0,0 STARLINK-3694,1 51957U 22025B   22350.85578555 -.00000288  00000-0 -15500-8 0  9997,2 51957  53.2179 281.1190 0002194  48.4268 311.6912 15.08819341 43231,6917.944,95.439,541.326,538.2909999999998,0.0
51957.0,STARLINK-3694,PAYLOAD,2022-12-17 12:26:10,15.08837738,0.0002374,53.218,278.1445,45.5446,314.574,2.458e-05,1.03e-06,0.0,0 STARLINK-3694,1 51957U 22025B   22351.51817795  .00000103  00000-0  24580-4 0  9991,2 51957  53.2180 278.1445 0002374  45.5446 314.5740 15.08837738 43330,6917.887,95.438,541.395,538.11,0.0
51957.0,STARLINK-3694,PAYLOAD,2022-12-17 14:01:33,15.08837629,0.0002313,53.2166,277.8468,42.5547,317.5624,6.1372e-05,6.88e-06,0.0,0 STARLINK-3694,1 51957U 22025B   22351.58441719  .00000688  00000-0  61372-4 0  9995,2 51957  53.2166 277.8468 0002313  42.5547 317.5624 15.08837629 43341,6917.888000000001,95.438,541.3530000000002,538.153,0.0
51957.0,STARLINK-3694,PAYLOAD,2022-12-18 02:44:38,15.08849581,0.0002184,53.2157,275.4679,46.8228,313.2947,0.00018138,2.6e-05,0.0,0 STARLINK-3694,1 51957U 22025B   22352.11433108  .00002600  00000-0  18138-3 0  9995,2 51957  53.2157 275.4679 0002184  46.8228 313.2947 15.08849581 44531,6917.851,95.437,541.227,538.205,0.0
51957.0,STARLINK-3694,PAYLOAD,2022-12-18 12:16:57,15.08846451,0.0002158,53.2157,273.6845,48.8344,311.2833,0.00013631,1.882e-05,0.0,0 STARLINK-3694,1 51957U 22025B   22352.51177317  .00001882  00000-0  13631-3 0  9990,2 51957  53.2157 273.6845 0002158  48.8344 311.2833 15.08846451 43486,6917.861,95.437,541.219,538.2330000000002,0.0
51957.0,STARLINK-3694,PAYLOAD,2022-12-18 18:38:30,15.0883371,0.0002044,53.2153,272.4945,52.2196,307.8981,0.00020458,2.969e-05,0.0,0 STARLINK-3694,1 51957U 22025B   22352.77674077  .00002969  00000-0  20458-3 0  9995,2 51957  53.2153 272.4945 0002044  52.2196 307.8981 15.08833710 43522,6917.9,95.438,541.179,538.351,0.0
51957.0,STARLINK-3694,PAYLOAD,2022-12-19 01:00:02,15.08836239,0.000199,53.2153,271.305,52.827,307.2904,0.00018867,2.716e-05,0.0,0 STARLINK-3694,1 51957U 22025B   22353.04169973  .00002716  00000-0  18867-3 0  9991,2 51957  53.2153 271.3050 0001990  52.8270 307.2904 15.08836239 44670,6917.892,95.438,541.134,538.38,0.0
51957.0,STARLINK-3694,PAYLOAD,2022-12-20 00:50:48,15.08854022,0.0001708,53.2161,266.8417,69.9715,290.1461,0.00021163,3.083e-05,0.0,0 STARLINK-3694,1 51957U 22025B   22354.03528734  .00003083  00000-0  21163-3 0  9996,2 51957  53.2161 266.8417 0001708  69.9715 290.1461 15.08854022 43717,6917.8380000000025,95.437,540.884,538.521,0.0
51957.0,STARLINK-3694,PAYLOAD,2022-12-20 21:30:50,15.08827104,0.0001858,53.2152,262.9781,73.2886,286.831,-0.0001826,-3.192e-05,0.0,0 STARLINK-3694,1 51957U 22025B   22354.89641970 -.00003192  00000-0 -18260-3 0  9995,2 51957  53.2152 262.9781 0001858  73.2886 286.8310 15.08827104 44954,6917.92,95.438,541.07,538.499,0.0
51957.0,STARLINK-3694,PAYLOAD,2022-12-21 03:52:23,15.08835197,0.0001862,53.2155,261.7893,67.9102,292.2088,-2.2136e-05,-6.4e-06,0.0,0 STARLINK-3694,1 51957U 22025B   22355.16137982 -.00000640  00000-0 -22136-4 0  9992,2 51957  53.2155 261.7893 0001862  67.9102 292.2088 15.08835197 44992,6917.895,95.438,541.048,538.472,0.0
51957.0,STARLINK-3694,PAYLOAD,2022-12-21 16:35:27,15.08849867,0.0001764,53.2155,259.4106,70.1224,289.9958,0.00033378,5.029e-05,0.0,0 STARLINK-3694,1 51957U 22025B   22355.69129428  .00005029  00000-0  33378-3 0  9999,2 51957  53.2155 259.4106 0001764  70.1224 289.9958 15.08849867 45073,6917.85,95.437,540.936,538.495,0.0
51957.0,STARLINK-3694,PAYLOAD,2022-12-22 10:04:42,15.08853018,0.0001638,53.216,256.1386,74.4234,285.6939,0.0002159,3.151e-05,0.0,0 STARLINK-3694,1 51957U 22025B   22356.41993127  .00003151  00000-0  21590-3 0  9992,2 51957  53.2160 256.1386 0001638  74.4234 285.6939 15.08853018 44075,6917.840999999999,95.437,540.839,538.572,0.0
51957.0,STARLINK-3694,PAYLOAD,2022-12-22 13:15:28,15.08850813,0.0001795,53.2157,255.5459,78.1477,281.9716,0.00011955,1.616e-05,0.0,0 STARLINK-3694,1 51957U 22025B   22356.55241149  .00001616  00000-0  11955-3 0  9995,2 51957  53.2157 255.5459 0001795  78.1477 281.9716 15.08850813 45207,6917.847,95.437,540.9540000000002,538.471,0.0
51957.0,STARLINK-3694,PAYLOAD,2022-12-22 21:12:23,15.08848903,0.0001607,53.2153,254.0573,86.1868,273.9307,0.00028131,4.193e-05,0.0,0 STARLINK-3694,1 51957U 22025B   22356.88361110  .00004193  00000-0  28131-3 0  9999,2 51957  53.2153 254.0573 0001607  86.1868 273.9307 15.08848903 44145,6917.853,95.437,540.83,538.606,0.0
51957.0,STARLINK-3694,PAYLOAD,2022-12-22 22:47:47,15.08837761,0.000149,53.2154,253.7604,95.2268,264.8894,-0.00010853,-2.015e-05,0.0,0 STARLINK-3694,1 51957U 22025B   22356.94985233 -.00002015  00000-0 -10853-3 0  9999,2 51957  53.2154 253.7604 0001490  95.2268 264.8894 15.08837761 45266,6917.887,95.438,540.783,538.721,0.0
51957.0,STARLINK-3694,PAYLOAD,2022-12-23 09:55:29,15.08832842,0.0001306,53.2152,251.6793,83.12,276.9941,0.00097868,0.00015319,0.0,0 STARLINK-3694,1 51957U 22025B   22357.41353945  .00015319  00000-0  97868-3 0  9991,2 51957  53.2152 251.6793 0001306  83.1200 276.9941 15.08832842 44225,6917.901999999999,95.438,540.6709999999998,538.864,0.0
51957.0,STARLINK-3694,PAYLOAD,2022-12-23 19:27:49,15.08826313,0.0001649,53.2143,249.8941,73.1085,287.0088,0.00056575,8.724e-05,0.0,0 STARLINK-3694,1 51957U 22025B   22357.81098684  .00008724  00000-0  56575-3 0  9993,2 51957  53.2143 249.8941 0001649  73.1085 287.0088 15.08826313 44286,6917.922,95.438,540.928,538.646,0.0
51957.0,STARLINK-3694,PAYLOAD,2022-12-24 00:13:58,15.08827221,0.0001008,53.2133,249.0069,102.5149,257.5956,0.00035088,5.299e-05,0.0,0 STARLINK-3694,1 51957U 22025B   22358.00970545  .00005299  00000-0  35088-3 0  9990,2 51957  53.2133 249.0069 0001008 102.5149 257.5956 15.08827221 45427,6917.919,95.438,540.482,539.087,0.0
51957.0,STARLINK-3694,PAYLOAD,2022-12-24 03:24:44,15.08846616,0.0001238,53.2139,248.4088,88.5465,271.5669,0.00085258,0.00013309,0.0,0 STARLINK-3694,1 51957U 22025B   22358.14218242  .00013309  00000-0  85258-3 0  9999,2 51957  53.2139 248.4088 0001238  88.5465 271.5669 15.08846616 45444,6917.86,95.437,540.582,538.869,0.0
51957.0,STARLINK-3694,PAYLOAD,2022-12-24 09:46:17,15.08858248,0.0001171,53.2138,247.2195,78.9957,281.1167,0.0014684,0.00023171,0.0,0 STARLINK-3694,1 51957U 22025B   22358.40714204  .00023171  00000-0  14684-2 0  9999,2 51957  53.2138 247.2195 0001171  78.9957 281.1167 15.08858248 44379,6917.825,95.436,540.5,538.88,0.0
51957.0,STARLINK-3694,PAYLOAD,2022-12-24 20:53:58,15.08856583,0.0001448,53.2138,245.137,76.4829,283.6324,0.00080507,0.00012554,0.0,0 STARLINK-3694,1 51957U 22025B   22358.87082020  .00012554  00000-0  80507-3 0  9995,2 51957  53.2138 245.1370 0001448  76.4829 283.6324 15.08856583 45552,6917.83,95.437,540.696,538.693,0.0
51957.0,STARLINK-3694,PAYLOAD,2022-12-25 09:37:03,15.08847601,0.0001341,53.2141,242.7577,72.6202,287.4937,0.00012376,1.683e-05,0.0,0 STARLINK-3694,1 51957U 22025B   22359.40073791  .00001683  00000-0  12376-3 0  9990,2 51957  53.2141 242.7577 0001341  72.6202 287.4937 15.08847601 45635,6917.857,95.437,540.65,538.794,0.0
51957.0,STARLINK-3694,PAYLOAD,2022-12-25 22:20:08,15.08842996,0.0001449,53.2142,240.3798,71.0612,289.0538,8.336e-05,1.039e-05,0.0,0 STARLINK-3694,1 51957U 22025B   22359.93065911  .00001039  00000-0  83360-4 0  9990,2 51957  53.2142 240.3798 0001449  71.0612 289.0538 15.08842996 44605,6917.871,95.437,540.739,538.734,0.0
51957.0,STARLINK-3694,PAYLOAD,2022-12-26 01:30:55,15.08838484,0.0001252999999999,53.2145,239.7857,66.2775,293.8348,3.0344e-05,1.95e-06,0.0,0 STARLINK-3694,1 51957U 22025B   22360.06314174  .00000195  00000-0  30344-4 0  9990,2 51957  53.2145 239.7857 0001253  66.2775 293.8348 15.08838484 45739,6917.885,95.438,540.617,538.883,0.0
51957.0,STARLINK-3694,PAYLOAD,2022-12-27 01:21:42,15.08852788,0.0001485,53.2142,235.3236,68.2012,291.9138,0.0002377,3.498e-05,0.0,0 STARLINK-3694,1 51957U 22025B   22361.05673640  .00003498  00000-0  23770-3 0  9999,2 51957  53.2142 235.3236 0001485  68.2012 291.9138 15.08852788 45887,6917.840999999999,95.437,540.734,538.679,0.0
51957.0,STARLINK-3694,PAYLOAD,2022-12-27 12:29:23,15.08864733,0.000151,53.2142,233.242,70.7916,289.324,0.00057243,8.840000000000001e-05,0.0,0 STARLINK-3694,1 51957U 22025B   22361.52041077  .00008840  00000-0  57243-3 0  9992,2 51957  53.2142 233.2420 0001510  70.7916 289.3240 15.08864733 44842,6917.805,95.436,540.714,538.625,0.0
51957.0,STARLINK-3694,PAYLOAD,2022-12-27 18:50:56,15.08856172,0.0001535,53.2139,232.0527,70.8891,289.2267,0.00038761,5.889e-05,0.0,0 STARLINK-3694,1 51957U 22025B   22361.78537285  .00005889  00000-0  38761-3 0  9995,2 51957  53.2139 232.0527 0001535  70.8891 289.2267 15.08856172 44883,6917.831,95.437,540.758,538.634,0.0
